[{"OBJECT_NAME":"TRANSPORTER-12 OBJECT AZ","OBJECT_ID":"2025-009AZ","EPOCH":"2026-03-09T17:02:46.667040","MEAN_MOTION":15.30349724,"ECCENTRICITY":9.87e-5,"INCLINATION":97.3981,"RA_OF_ASC_NODE":151.9913,"ARG_OF_PERICENTER":45.3581,"MEAN_ANOMALY":314.774,"EPHEMERIS_TYPE":0,"CLASSIFICATION_TYPE":"U","NORAD_CAT_ID":62656,"ELEMENT_SET_NO":999,"REV_AT_EPOCH":6379,"BSTAR":0.00054902545,"MEAN_MOTION_DOT":0.00016057,"MEAN_MOTION_DDOT":0},{"OBJECT_NAME":"STARLINK-34471","OBJECT_ID":"2025-144R","EPOCH":"2026-03-09T13:58:11.140032","MEAN_MOTION":15.30191669,"ECCENTRICITY":0.000114,"INCLINATION":53.1592,"RA_OF_ASC_NODE":181.6625,"ARG_OF_PERICENTER":90.6448,"MEAN_ANOMALY":269.4684,"EPHEMERIS_TYPE":0,"CLASSIFICATION_TYPE":"U","NORAD_CAT_ID":64739,"ELEMENT_SET_NO":999,"REV_AT_EPOCH":3963,"BSTAR":0.00060055,"MEAN_MOTION_DOT":0.00017465,"MEAN_MOTION_DDOT":0}]
